STARLINK-4720
1 53800U 22111AD  26060.99520712  .00032429  00000+0  52779-3 0  9994
2 53800  53.2105 276.8595 0004599 128.8375 231.3047 15.52385768192964
